H1 CPF  1  DLR 2022 03 22 10  5812 technosat            
H2  1704205 6203    42829 2022 03 22 00 00 00 2022 03 29 00 00 00    60 1 1  0 0 0
H9
10 0 59660  79200.000000  0       5520924.576      -2594320.212       3387165.377
10 0 59660  79260.000000  0       5665805.727      -2766936.516       2988432.016
10 0 59660  79320.000000  0       5785404.607      -2929078.202       2577044.951
10 0 59660  79380.000000  0       5879309.038      -3079838.021       2154743.792
10 0 59660  79440.000000  0       5947223.013      -3218353.508       1723315.378
10 0 59660  79500.000000  0       5988967.788      -3343811.826       1284586.102
10 0 59660  79560.000000  0       6004482.260      -3455454.308        840413.959
10 0 59660  79620.000000  0       5993822.791      -3552580.725        392680.601
10 0 59660  79680.000000  0       5957162.609      -3634553.372        -56716.752
10 0 59660  79740.000000  0       5894790.617      -3700800.897       -505873.620
10 0 59660  79800.000000  0       5807109.506      -3750821.731       -952886.616
10 0 59660  79860.000000  0       5694633.363      -3784187.143      -1395861.676
10 0 59660  79920.000000  0       5557984.799      -3800543.979      -1832922.264
10 0 59660  79980.000000  0       5397891.527      -3799617.069      -2262217.482
10 0 59660  80040.000000  0       5215182.479      -3781211.252      -2681930.046
10 0 59660  80100.000000  0       5010783.458      -3745212.981      -3090284.131
10 0 59660  80160.000000  0       4785712.311      -3691591.496      -3485552.973
10 0 59660  80220.000000  0       4541073.716      -3620399.643      -3866066.177
10 0 59660  80280.000000  0       4278053.619      -3531774.283      -4230216.799
10 0 59660  80340.000000  0       3997913.294      -3425936.230      -4576468.113
10 0 59660  80400.000000  0       3701983.127      -3303189.794      -4903359.995
10 0 59660  80460.000000  0       3391656.124      -3163921.915      -5209514.924
10 0 59660  80520.000000  0       3068381.228      -3008600.931      -5493643.582
10 0 59660  80580.000000  0       2733656.481      -2837774.997      -5754550.051
10 0 59660  80640.000000  0       2389022.043      -2652070.152      -5991136.638
10 0 59660  80700.000000  0       2036053.087      -2452188.009      -6202408.354
10 0 59660  80760.000000  0       1676352.542      -2238903.028      -6387476.959
10 0 59660  80820.000000  0       1311543.750      -2013059.413      -6545564.501
10 0 59660  80880.000000  0        943263.139      -1775567.686      -6676006.313
10 0 59660  80940.000000  0        573152.956      -1527401.037      -6778253.592
10 0 59660  81000.000000  0        202853.982      -1269591.350      -6851875.567
10 0 59660  81060.000000  0       -166001.653      -1003224.912      -6896561.124
10 0 59660  81120.000000  0       -531797.515       -729437.932      -6912120.036
10 0 59660  81180.000000  0       -892939.871       -449411.770      -6898483.806
10 0 59660  81240.000000  0      -1247864.605       -164367.898      -6855705.959
10 0 59660  81300.000000  0      -1595043.911        124437.344      -6783961.847
10 0 59660  81360.000000  0      -1932992.800        415718.186      -6683548.032
10 0 59660  81420.000000  0      -2260275.393        708165.056      -6554881.211
10 0 59660  81480.000000  0      -2575510.981       1000450.387      -6398496.688
10 0 59660  81540.000000  0      -2877379.853       1291234.560      -6215046.379
10 0 59660  81600.000000  0      -3164628.871       1579171.963      -6005296.392
10 0 59660  81660.000000  0      -3436076.799       1862917.188      -5770124.165
10 0 59660  81720.000000  0      -3690619.342       2141131.321      -5510515.101
10 0 59660  81780.000000  0      -3927233.846       2412488.298      -5227558.703
10 0 59660  81840.000000  0      -4144983.619       2675681.282      -4922444.215
10 0 59660  81900.000000  0      -4343021.854       2929429.008      -4596455.807
10 0 59660  81960.000000  0      -4520595.114       3172482.067      -4250967.366
10 0 59660  82020.000000  0      -4677046.405       3403629.146      -3887436.913
10 0 59660  82080.000000  0      -4811817.862       3621703.195      -3507400.631
10 0 59660  82140.000000  0      -4924452.962       3825587.444      -3112466.405
10 0 59660  82200.000000  0      -5014598.235       4014221.217      -2704307.003
10 0 59660  82260.000000  0      -5082004.444       4186605.501      -2284652.971
10 0 59660  82320.000000  0      -5126527.347       4341808.318      -1855285.273
10 0 59660  82380.000000  0      -5148127.945       4478969.837      -1418027.549
10 0 59660  82440.000000  0      -5146872.157       4597307.101       -974738.168
10 0 59660  82500.000000  0      -5122930.016       4696118.440       -527302.108
10 0 59660  82560.000000  0      -5076574.291       4774787.543        -77622.644
10 0 59660  82620.000000  0      -5008178.608       4832787.088        372387.048
10 0 59660  82680.000000  0      -4918215.098       4869681.849        820812.370
10 0 59660  82740.000000  0      -4807251.543       4885131.400       1265745.764
10 0 59660  82800.000000  0      -4675948.015       4878892.348       1705295.165
10 0 59660  82860.000000  0      -4525053.048       4850820.074       2137592.311
10 0 59660  82920.000000  0      -4355399.402       4800869.981       2560800.918
10 0 59660  82980.000000  0      -4167899.441       4729098.248       2973124.663
10 0 59660  83040.000000  0      -3963540.170       4635662.094       3372814.959
10 0 59660  83100.000000  0      -3743377.945       4520819.532       3758178.468
10 0 59660  83160.000000  0      -3508532.928       4384928.616       4127584.300
10 0 59660  83220.000000  0      -3260183.287       4228446.278       4479470.947
10 0 59660  83280.000000  0      -2999559.119       4051926.617       4812352.872
10 0 59660  83340.000000  0      -2727936.226       3856018.739       5124826.665
10 0 59660  83400.000000  0      -2446629.724       3641464.147       5415576.816
10 0 59660  83460.000000  0      -2156987.562       3409093.716       5683381.056
10 0 59660  83520.000000  0      -1860383.960       3159824.263       5927115.260
10 0 59660  83580.000000  0      -1558212.809       2894654.727       6145757.916
10 0 59660  83640.000000  0      -1251881.044       2614661.941       6338394.105
10 0 59660  83700.000000  0       -942802.120       2320996.098       6504218.926
10 0 59660  83760.000000  0       -632389.609       2014876.003       6642540.602
10 0 59660  83820.000000  0       -322050.769       1697583.941       6752783.206
10 0 59660  83880.000000  0        -13180.191       1370460.218       6834488.801
10 0 59660  83940.000000  0        292846.390       1034897.498       6887319.096
10 0 59660  84000.000000  0        594678.141        692334.922       6911056.664
10 0 59660  84060.000000  0        890994.975        344252.008       6905605.710
10 0 59660  84120.000000  0       1180513.234         -7837.660       6870992.417
10 0 59660  84180.000000  0       1461991.160       -362392.935       6807364.823
10 0 59660  84240.000000  0       1734234.164       -717851.819       6714992.205
10 0 59660  84300.000000  0       1996099.807      -1072638.231       6594263.937
10 0 59660  84360.000000  0       2246502.547      -1425168.866       6445688.022
10 0 59660  84420.000000  0       2484418.252      -1773860.220       6269889.146
10 0 59660  84480.000000  0       2708888.411      -2117135.679       6067606.207
10 0 59660  84540.000000  0       2919024.027      -2453432.592       5839689.364
10 0 59660  84600.000000  0       3114009.161      -2781209.350       5587096.689
10 0 59660  84660.000000  0       3293104.151      -3098952.480       5310890.388
10 0 59660  84720.000000  0       3455648.489      -3405183.674       5012232.548
10 0 59660  84780.000000  0       3601063.339      -3698466.699       4692380.479
10 0 59660  84840.000000  0       3728853.712      -3977414.248       4352681.637
10 0 59660  84900.000000  0       3838610.211      -4240694.629       3994568.065
10 0 59660  84960.000000  0       3930010.326      -4487038.218       3619550.498
10 0 59660  85020.000000  0       4002819.382      -4715243.727       3229212.130
10 0 59660  85080.000000  0       4056891.055      -4924184.212       2825201.967
10 0 59660  85140.000000  0       4092167.455      -5112812.765       2409227.877
10 0 59660  85200.000000  0       4108678.776      -5280167.866       1983049.355
10 0 59660  85260.000000  0       4106542.534      -5425378.389       1548470.012
10 0 59660  85320.000000  0       4085962.338      -5547668.184       1107329.814
10 0 59660  85380.000000  0       4047226.233      -5646360.187        661497.170
10 0 59660  85440.000000  0       3990704.692      -5720880.100        212860.964
10 0 59660  85500.000000  0       3916848.263      -5770759.715       -236677.622
10 0 59660  85560.000000  0       3826184.721      -5795639.675       -685213.450
10 0 59660  85620.000000  0       3719315.807      -5795271.648      -1130845.743
10 0 59660  85680.000000  0       3596913.645      -5769519.947      -1571686.310
10 0 59660  85740.000000  0       3459716.872      -5718362.659      -2005867.685
10 0 59660  85800.000000  0       3308526.478      -5641892.259      -2431551.226
10 0 59660  85860.000000  0       3144201.322      -5540315.634      -2846935.105
10 0 59660  85920.000000  0       2967653.362      -5413953.520      -3250262.061
10 0 59660  85980.000000  0       2779842.688      -5263239.400      -3639826.909
10 0 59660  86040.000000  0       2581772.339      -5088717.880      -4013983.784
10 0 59660  86100.000000  0       2374482.969      -4891042.537      -4371153.060
10 0 59660  86160.000000  0       2159047.408      -4670973.252      -4709827.955
10 0 59660  86220.000000  0       1936565.145      -4429373.053      -5028580.748
10 0 59660  86280.000000  0       1708156.798      -4167204.518      -5326068.641
10 0 59660  86340.000000  0       1474958.505      -3885525.749      -5601039.240
99
